STARLINK-4110
1 53166U 22083AL  26090.83335647 -.00528454  00000+0 -32082-1 0  9997
2 53166  53.2168  64.3455 0001110  73.6359 203.2929 15.12308812  5835
